CCSDS_OMM_VERS = 2.0
CREATION_DATE  = 
ORIGINATOR     = 

OBJECT_NAME    = STARLINK-36942
OBJECT_ID      = 2026-040R
CENTER_NAME    = EARTH
REF_FRAME      = TEME
TIME_SYSTEM    = UTC
MEAN_ELEMENT_THEORY = SGP/SGP4

EPOCH          = 2026-03-10T18:00:01.999296
MEAN_MOTION    = 16.04408726
ECCENTRICITY   = .0001127
INCLINATION    = 97.2769
RA_OF_ASC_NODE = 18.0376
ARG_OF_PERICENTER = 82.0516
MEAN_ANOMALY   = 72.5939

EPHEMERIS_TYPE = 0
CLASSIFICATION_TYPE = U
NORAD_CAT_ID   = 68030
ELEMENT_SET_NO = 999
REV_AT_EPOCH   = 259
BSTAR          = -.16451E-2
MEAN_MOTION_DOT = -.1073215E-1
MEAN_MOTION_DDOT = .39316E-3

CCSDS_OMM_VERS = 2.0
CREATION_DATE  = 
ORIGINATOR     = 

OBJECT_NAME    = STARLINK-36913
OBJECT_ID      = 2026-040S
CENTER_NAME    = EARTH
REF_FRAME      = TEME
TIME_SYSTEM    = UTC
MEAN_ELEMENT_THEORY = SGP/SGP4

EPOCH          = 2026-03-10T18:00:01.999296
MEAN_MOTION    = 16.04532090
ECCENTRICITY   = .0001312
INCLINATION    = 97.2768
RA_OF_ASC_NODE = 18.0387
ARG_OF_PERICENTER = 93.7021
MEAN_ANOMALY   = 63.9490

EPHEMERIS_TYPE = 0
CLASSIFICATION_TYPE = U
NORAD_CAT_ID   = 68031
ELEMENT_SET_NO = 999
REV_AT_EPOCH   = 259
BSTAR          = -.16436E-2
MEAN_MOTION_DOT = -.108017E-1
MEAN_MOTION_DDOT = .39847E-3

CCSDS_OMM_VERS = 2.0
CREATION_DATE  = 
ORIGINATOR     = 

OBJECT_NAME    = STARLINK-36935
OBJECT_ID      = 2026-040T
CENTER_NAME    = EARTH
REF_FRAME      = TEME
TIME_SYSTEM    = UTC
MEAN_ELEMENT_THEORY = SGP/SGP4

EPOCH          = 2026-03-10T18:00:01.999296
MEAN_MOTION    = 16.05357032
ECCENTRICITY   = .0001063
INCLINATION    = 97.2764
RA_OF_ASC_NODE = 18.0471
ARG_OF_PERICENTER = 87.3782
MEAN_ANOMALY   = 90.8309

EPHEMERIS_TYPE = 0
CLASSIFICATION_TYPE = U
NORAD_CAT_ID   = 68032
ELEMENT_SET_NO = 999
REV_AT_EPOCH   = 269
BSTAR          = -.15244E-2
MEAN_MOTION_DOT = -.1053145E-1
MEAN_MOTION_DDOT = .38402E-3

CCSDS_OMM_VERS = 2.0
CREATION_DATE  = 
ORIGINATOR     = 

OBJECT_NAME    = STARLINK-36947
OBJECT_ID      = 2026-040U
CENTER_NAME    = EARTH
REF_FRAME      = TEME
TIME_SYSTEM    = UTC
MEAN_ELEMENT_THEORY = SGP/SGP4

EPOCH          = 2026-03-10T18:00:01.999296
MEAN_MOTION    = 16.04610767
ECCENTRICITY   = .0001091
INCLINATION    = 97.2767
RA_OF_ASC_NODE = 18.0398
ARG_OF_PERICENTER = 83.7749
MEAN_ANOMALY   = 76.3576

EPHEMERIS_TYPE = 0
CLASSIFICATION_TYPE = U
NORAD_CAT_ID   = 68033
ELEMENT_SET_NO = 999
REV_AT_EPOCH   = 259
BSTAR          = -.15862E-2
MEAN_MOTION_DOT = -.104765E-1
MEAN_MOTION_DDOT = .37692E-3

CCSDS_OMM_VERS = 2.0
CREATION_DATE  = 
ORIGINATOR     = 

OBJECT_NAME    = STARLINK-36939
OBJECT_ID      = 2026-040V
CENTER_NAME    = EARTH
REF_FRAME      = TEME
TIME_SYSTEM    = UTC
MEAN_ELEMENT_THEORY = SGP/SGP4

EPOCH          = 2026-03-10T18:00:01.999296
MEAN_MOTION    = 16.05075036
ECCENTRICITY   = .0001115
INCLINATION    = 97.2772
RA_OF_ASC_NODE = 18.0445
ARG_OF_PERICENTER = 93.1699
MEAN_ANOMALY   = 78.2129

EPHEMERIS_TYPE = 0
CLASSIFICATION_TYPE = U
NORAD_CAT_ID   = 68034
ELEMENT_SET_NO = 999
REV_AT_EPOCH   = 259
BSTAR          = -.15523E-2
MEAN_MOTION_DOT = -.105425E-1
MEAN_MOTION_DDOT = .38346E-3

CCSDS_OMM_VERS = 2.0
CREATION_DATE  = 
ORIGINATOR     = 

OBJECT_NAME    = STARLINK-36943
OBJECT_ID      = 2026-040W
CENTER_NAME    = EARTH
REF_FRAME      = TEME
TIME_SYSTEM    = UTC
MEAN_ELEMENT_THEORY = SGP/SGP4

EPOCH          = 2026-03-10T18:00:01.999296
MEAN_MOTION    = 16.05658676
ECCENTRICITY   = .0001032
INCLINATION    = 97.2774
RA_OF_ASC_NODE = 18.0530
ARG_OF_PERICENTER = 89.1187
MEAN_ANOMALY   = 100.4702

EPHEMERIS_TYPE = 0
CLASSIFICATION_TYPE = U
NORAD_CAT_ID   = 68035
ELEMENT_SET_NO = 999
REV_AT_EPOCH   = 264
BSTAR          = -.15201E-2
MEAN_MOTION_DOT = -.106947E-1
MEAN_MOTION_DDOT = .39656E-3

CCSDS_OMM_VERS = 2.0
CREATION_DATE  = 
ORIGINATOR     = 

OBJECT_NAME    = STARLINK-36906
OBJECT_ID      = 2026-040X
CENTER_NAME    = EARTH
REF_FRAME      = TEME
TIME_SYSTEM    = UTC
MEAN_ELEMENT_THEORY = SGP/SGP4

EPOCH          = 2026-03-10T18:00:01.999296
MEAN_MOTION    = 16.04975022
ECCENTRICITY   = .0001057
INCLINATION    = 97.2768
RA_OF_ASC_NODE = 18.0434
ARG_OF_PERICENTER = 81.9797
MEAN_ANOMALY   = 86.8280

EPHEMERIS_TYPE = 0
CLASSIFICATION_TYPE = U
NORAD_CAT_ID   = 68036
ELEMENT_SET_NO = 999
REV_AT_EPOCH   = 259
BSTAR          = -.15848E-2
MEAN_MOTION_DOT = -.1069702E-1
MEAN_MOTION_DDOT = .39344E-3

CCSDS_OMM_VERS = 2.0
CREATION_DATE  = 
ORIGINATOR     = 

OBJECT_NAME    = STARLINK-36388
OBJECT_ID      = 2026-040Y
CENTER_NAME    = EARTH
REF_FRAME      = TEME
TIME_SYSTEM    = UTC
MEAN_ELEMENT_THEORY = SGP/SGP4

EPOCH          = 2026-03-10T18:00:01.999296
MEAN_MOTION    = 16.05223209
ECCENTRICITY   = .0001007
INCLINATION    = 97.2772
RA_OF_ASC_NODE = 18.0461
ARG_OF_PERICENTER = 82.9419
MEAN_ANOMALY   = 92.1154

EPHEMERIS_TYPE = 0
CLASSIFICATION_TYPE = U
NORAD_CAT_ID   = 68037
ELEMENT_SET_NO = 999
REV_AT_EPOCH   = 254
BSTAR          = -.15356E-2
MEAN_MOTION_DOT = -.1052346E-1
MEAN_MOTION_DDOT = .38287E-3

CCSDS_OMM_VERS = 2.0
CREATION_DATE  = 
ORIGINATOR     = 

OBJECT_NAME    = STARLINK-36895
OBJECT_ID      = 2026-040Z
CENTER_NAME    = EARTH
REF_FRAME      = TEME
TIME_SYSTEM    = UTC
MEAN_ELEMENT_THEORY = SGP/SGP4

EPOCH          = 2026-03-10T18:00:01.999296
MEAN_MOTION    = 16.04859170
ECCENTRICITY   = .000105
INCLINATION    = 97.2760
RA_OF_ASC_NODE = 18.0418
ARG_OF_PERICENTER = 86.0487
MEAN_ANOMALY   = 79.9603

EPHEMERIS_TYPE = 0
CLASSIFICATION_TYPE = U
NORAD_CAT_ID   = 68038
ELEMENT_SET_NO = 999
REV_AT_EPOCH   = 259
BSTAR          = -.15865E-2
MEAN_MOTION_DOT = -.1063466E-1
MEAN_MOTION_DDOT = .38867E-3

CCSDS_OMM_VERS = 2.0
CREATION_DATE  = 
ORIGINATOR     = 

OBJECT_NAME    = STARLINK-36373
OBJECT_ID      = 2026-040AA
CENTER_NAME    = EARTH
REF_FRAME      = TEME
TIME_SYSTEM    = UTC
MEAN_ELEMENT_THEORY = SGP/SGP4

EPOCH          = 2026-03-10T18:00:01.999296
MEAN_MOTION    = 16.04728403
ECCENTRICITY   = .0001077
INCLINATION    = 97.2762
RA_OF_ASC_NODE = 18.0407
ARG_OF_PERICENTER = 77.8503
MEAN_ANOMALY   = 84.8584

EPHEMERIS_TYPE = 0
CLASSIFICATION_TYPE = U
NORAD_CAT_ID   = 68039
ELEMENT_SET_NO = 999
REV_AT_EPOCH   = 254
BSTAR          = -.16054E-2
MEAN_MOTION_DOT = -.1067695E-1
MEAN_MOTION_DDOT = .39092E-3

CCSDS_OMM_VERS = 2.0
CREATION_DATE  = 
ORIGINATOR     = 

OBJECT_NAME    = STARLINK-36711
OBJECT_ID      = 2026-041A
CENTER_NAME    = EARTH
REF_FRAME      = TEME
TIME_SYSTEM    = UTC
MEAN_ELEMENT_THEORY = SGP/SGP4

EPOCH          = 2026-03-10T18:00:01.999296
MEAN_MOTION    = 15.88316622
ECCENTRICITY   = .0000572
INCLINATION    = 53.1591
RA_OF_ASC_NODE = 56.8911
ARG_OF_PERICENTER = 89.5581
MEAN_ANOMALY   = 320.2138

EPHEMERIS_TYPE = 0
CLASSIFICATION_TYPE = U
NORAD_CAT_ID   = 68040
ELEMENT_SET_NO = 999
REV_AT_EPOCH   = 254
BSTAR          = -.5823E-2
MEAN_MOTION_DOT = -.1431069E-1
MEAN_MOTION_DDOT = 0

CCSDS_OMM_VERS = 2.0
CREATION_DATE  = 
ORIGINATOR     = 

OBJECT_NAME    = STARLINK-36825
OBJECT_ID      = 2026-041B
CENTER_NAME    = EARTH
REF_FRAME      = TEME
TIME_SYSTEM    = UTC
MEAN_ELEMENT_THEORY = SGP/SGP4

EPOCH          = 2026-03-10T18:00:01.999296
MEAN_MOTION    = 15.88608220
ECCENTRICITY   = .0000524
INCLINATION    = 53.1587
RA_OF_ASC_NODE = 56.8776
ARG_OF_PERICENTER = 95.8309
MEAN_ANOMALY   = 320.0124

EPHEMERIS_TYPE = 0
CLASSIFICATION_TYPE = U
NORAD_CAT_ID   = 68041
ELEMENT_SET_NO = 999
REV_AT_EPOCH   = 254
BSTAR          = -.56881E-2
MEAN_MOTION_DOT = -.142031E-1
MEAN_MOTION_DDOT = 0

